     3.03           N: GNSS NAV DATA    G: GPS              RINEX VERSION / TYPE
Converto v3.5.1     IGN                 20190115 003605 UTC PGM / RUN BY / DATE
GPSA   7.4506E-09 -1.4901E-08 -5.9605E-08  1.1921E-07       IONOSPHERIC CORR
GPSB   8.8064E+04 -4.9152E+04 -1.9661E+05  3.2768E+05       IONOSPHERIC CORR
GPUT -1.8626451492E-09-2.664535259E-15 233472 2036          TIME SYSTEM CORR
    18    18  1929     7                                    LEAP SECONDS
                                                            END OF HEADER
G24 2019 01 14 18 00 00-6.079534068704D-05-4.547473508865D-13 0.000000000000D+00
     1.400000000000D+01 7.696875000000D+01 5.172715464362D-09 2.002499927817D+00
     3.937631845474D-06 8.047802839428D-03 8.024275302887D-06 5.153734956741D+03
     1.512000000000D+05-1.844018697739D-07 2.490033197729D+00 9.313225746155D-09
     9.396692751228D-01 2.135937500000D+02 5.809311622290D-01-8.389278018532D-09
     8.250343659930D-11 1.000000000000D+00 2.036000000000D+03 0.000000000000D+00
     2.000000000000D+00 0.000000000000D+00 2.793967723846D-09 1.400000000000D+01
     1.440000000000D+05                   
G24 2019 01 14 20 00 00-6.079906597733D-05-4.547473508865D-13 0.000000000000D+00
     1.600000000000D+01 7.703125000000D+01 5.055210569811D-09 3.052596819288D+00
     3.881752490997D-06 8.047185721807D-03 7.759779691696D-06 5.153736318588D+03
     1.584000000000D+05-3.352761268616D-08 2.489973329269D+00-8.940696716309D-08
     9.396706765983D-01 2.191250000000D+02 5.809816855678D-01-8.233200088688D-09
     1.064330047904D-10 1.000000000000D+00 2.036000000000D+03 0.000000000000D+00
     2.000000000000D+00 0.000000000000D+00 2.793967723846D-09 1.600000000000D+01
     1.512000000000D+05                   
G24 2019 01 14 22 00 00-6.080232560635D-05-4.547473508865D-13 0.000000000000D+00
     1.700000000000D+01 6.600000000000D+01 5.120927592903D-09-2.180532692716D+00
     3.263354301453D-06 8.048736373894D-03 7.459893822670D-06 5.153733116150D+03
     1.656000000000D+05 7.078051567078D-08 2.489913468125D+00-8.381903171539D-08
     9.396715265537D-01 2.248750000000D+02 5.810737923530D-01-8.281059225070D-09
     1.764359206929D-10 1.000000000000D+00 2.036000000000D+03 0.000000000000D+00
     2.800000000000D+00 0.000000000000D+00 2.793967723846D-09 1.700000000000D+01
     1.584000000000D+05                   
G24 2019 01 15 00 00 00-6.080605089664D-05-4.547473508865D-13 0.000000000000D+00
     6.500000000000D+01 6.087500000000D+01 5.079140138003D-09-1.130291987621D+00
     3.209337592125D-06 8.048749412410D-03 7.480382919312D-06 5.153734498978D+03
     1.728000000000D+05 1.583248376846D-07 2.489854053170D+00-1.490116119385D-08
     9.396725564480D-01 2.228125000000D+02 5.809813359304D-01-8.337847304808D-09
     1.285767843106D-10 1.000000000000D+00 2.036000000000D+03 0.000000000000D+00
     2.800000000000D+00 0.000000000000D+00 2.793967723846D-09 6.500000000000D+01
     1.656000000000D+05                   
G25 2019 01 13 14 00 00-7.053297013044D-04-5.456968210638D-12 0.000000000000D+00
     3.200000000000D+01-9.000000000000D+00 4.221247260464D-09-2.066696468466D+00
    -4.507601261139D-07 8.000110043213D-03 6.413087248802D-06 5.153768278122D+03
     5.040000000000D+04 6.705522537231D-08-2.694294123479D+00-1.583248376846D-07
     9.720530617060D-01 2.616562500000D+02 8.472297477540D-01-7.889971506126D-09
    -2.114373786441D-10 1.000000000000D+00 2.036000000000D+03 0.000000000000D+00
     2.000000000000D+00 0.000000000000D+00 5.587935447693D-09 3.200000000000D+01
     4.320000000000D+04                   
G25 2019 01 13 22 00 00-7.054870948195E-04-5.456968210638E-12 0.000000000000E+00
     7.600000000000E+01-2.656250000000E+00 4.353395622116E-09 2.133682353554E+00
    -2.663582563400E-07 8.001503651030E-03 6.718561053276E-06 5.153770576477E+03
     7.920000000000E+04-1.341104507446E-07-2.694528439068E+00-1.583248376846E-07
     9.720430231622E-01 2.550625000000E+02 8.473380739119E-01-7.976046520067E-09
    -2.453673633927E-10 1.000000000000E+00 2.036000000000E+03 0.000000000000E+00
     2.000000000000E+00 0.000000000000E+00 5.587935447693E-09 7.600000000000E+01
     7.201800000000E+04 4.000000000000E+00
G25 2019 01 14 00 00 00-7.055262103677D-04-5.456968210638D-12 0.000000000000D+00
     8.600000000000D+01-5.625000000000D-01 4.351609833445D-09-3.099427915225D+00
    -1.415610313416D-07 8.001000853255D-03 6.439164280891D-06 5.153771707535D+03
     8.640000000000D+04-3.352761268616D-08-2.694585876158D+00-2.048909664154D-07
     9.720413173997D-01 2.593125000000D+02 8.473830893641D-01-7.977832308738D-09
    -2.171519023912D-10 1.000000000000D+00 2.036000000000D+03 0.000000000000D+00
     2.000000000000D+00 0.000000000000D+00 5.587935447693D-09 8.600000000000D+01
     7.920000000000D+04                   
G25 2019 01 14 02 00 00-7.055657915771D-04-5.456968210638D-12 0.000000000000D+00
     9.100000000000D+01-5.031250000000D+00 4.475186409477D-09-2.049480984561D+00
    -3.241002559662D-07 8.003050577827D-03 5.623325705528D-06 5.153767074585D+03
     9.360000000000D+04 1.359730958939D-07-2.694644274384D+00-1.005828380585D-07
     9.720402421549D-01 2.766562500000D+02 8.475581436044D-01-8.031405968867D-09
    -8.678932940965D-11 1.000000000000D+00 2.036000000000D+03 0.000000000000D+00
     2.000000000000D+00 0.000000000000D+00 5.587935447693D-09 9.100000000000D+01
     8.640000000000D+04                   
G25 2019 01 14 03 59 44-7.056058384478D-04-5.456968210638D-12 0.000000000000D+00
     6.000000000000D+00-3.093750000000D+00 4.546617956316D-09-1.001717994558D+00
    -5.029141902924D-08 8.003255585209D-03 5.554407835007D-06 5.153766674042D+03
     1.007840000000D+05 1.303851604462D-07-2.694701761213D+00 1.732259988785D-07
     9.720386431854D-01 2.795937500000D+02 8.475852061260D-01-8.227842722675D-09
    -1.764359206929D-10 1.000000000000D+00 2.036000000000D+03 0.000000000000D+00
     2.000000000000D+00 0.000000000000D+00 5.587935447693D-09 6.000000000000D+00
     9.792000000000D+04                   
G25 2019 01 14 04 00 00-7.056049071252D-04-5.456968210638D-12 0.000000000000D+00
     9.500000000000D+01-3.093750000000D+00 4.546617956316D-09-9.993835196265D-01
    -5.029141902924D-08 8.003258029930D-03 5.554407835007D-06 5.153766675949D+03
     1.008000000000D+05 1.303851604462D-07-2.694701885561D+00 1.732259988785D-07
     9.720386461113D-01 2.795937500000D+02 8.475843620222D-01-8.227842722675D-09
    -1.767930784271D-10 1.000000000000D+00 2.036000000000D+03 0.000000000000D+00
     2.800000000000D+00 0.000000000000D+00 5.587935447693D-09 9.500000000000D+01
     9.360000000000D+04                   
G25 2019 01 14 05 59 44-7.056449539959D-04-5.456968210638D-12 0.000000000000D+00
     7.000000000000D+00-2.343750000000D+00 4.536974697493D-09 4.840773687940D-02
    -1.303851604462D-07 8.003352442756D-03 5.688518285751D-06 5.153766857147D+03
     1.079840000000D+05 1.862645149231D-08-2.694761424864D+00 1.471489667892D-07
     9.720370954181D-01 2.796875000000D+02 8.475837958729D-01-8.297131323109D-09
    -1.771502361613D-10 1.000000000000D+00 2.036000000000D+03 0.000000000000D+00
     2.000000000000D+00 0.000000000000D+00 5.587935447693D-09 7.000000000000D+00
     1.008000000000D+05                   
G25 2019 01 14 08 00 00-7.056845352054E-04-5.456968210638E-12 0.000000000000E+00
     3.300000000000E+01 1.156250000000E+00 4.421969907082E-09 1.100778027915E+00
    -4.842877388000E-08 8.004519622773E-03 5.939975380898E-06 5.153769445419E+03
     1.152000000000E+05-8.940696716309E-08-2.694820888095E+00 1.229345798492E-07
     9.720355856867E-01 2.707812500000E+02 8.476697203663E-01-8.263558496095E-09
    -2.242950570751E-10 1.000000000000E+00 2.036000000000E+03 0.000000000000E+00
     2.000000000000E+00 0.000000000000E+00 5.587935447693E-09 3.300000000000E+01
     1.080180000000E+05 4.000000000000E+00
G25 2019 01 14 10 00 00-7.057236507535D-04-5.456968210638D-12 0.000000000000D+00
     3.400000000000D+01-4.687500000000D-01 4.273749447390D-09 2.150872786451D+00
    -5.401670932770D-08 8.004588773474D-03 5.951151251793D-06 5.153769838333D+03
     1.224000000000D+05-9.685754776001D-08-2.694880583930D+00-1.676380634308D-07
     9.720351614404D-01 2.700625000000D+02 8.476963981404D-01-8.042835016362D-09
    -1.150047904111D-10 1.000000000000D+00 2.036000000000D+03 0.000000000000D+00
     2.000000000000D+00 0.000000000000D+00 5.587935447693D-09 3.400000000000D+01
     1.152000000000D+05                   
G25 2019 01 14 12 00 00-7.057632319629D-04-5.456968210638D-12 0.000000000000D+00
     3.500000000000D+01 2.750000000000D+00 4.211961159374D-09-3.082240902631D+00
     1.266598701477D-07 8.003951865248D-03 5.710870027542D-06 5.153771209717D+03
     1.296000000000D+05 1.862645149231D-09-2.694937988836D+00-1.080334186554D-07
     9.720346260124D-01 2.746250000000D+02 8.477443028558D-01-7.962831683902D-09
    -1.246480492344D-10 1.000000000000D+00 2.036000000000D+03 0.000000000000D+00
     2.000000000000D+00 0.000000000000D+00 5.587935447693D-09 3.500000000000D+01
     1.224000000000D+05                   
G25 2019 01 14 14 00 00-7.058023475111D-04-5.456968210638D-12 0.000000000000D+00
     6.200000000000D+01 6.250000000000D-01 4.284821337150D-09-2.032256870902D+00
     4.470348358154D-08 8.005412761122D-03 5.058944225311D-06 5.153767805099D+03
     1.368000000000D+05 8.754432201385D-08-2.694995446406D+00-1.396983861923D-07
     9.720338126299D-01 2.876250000000D+02 8.478805546570D-01-7.988547040764D-09
    -1.253623647028D-10 1.000000000000D+00 2.036000000000D+03 0.000000000000D+00
     2.000000000000D+00 0.000000000000D+00 5.587935447693D-09 6.200000000000D+01
     1.296000000000D+05                   
